ENVISAT                 
1 27386U 02009A   25332.67287025  .00000155  00000+0  64082-4 0  9993
2 27386  98.3580 283.7717 0001242  82.2784  91.0843 14.38990998244641
IDEFIX & ARIANE 42P R/B 
1 27422U 02021B   25332.52851786  .00000335  00000+0  14398-3 0  9997
2 27422  98.5767 267.4054 0012696 122.0238 238.2180 14.30933885229552
AQUA                    
1 27424U 02022A   25332.65552994  .00001180  00000+0  24650-3 0  9994
2 27424  98.4018 293.3077 0000632  97.4457 315.0440 14.61755963253979
CZ-4B R/B               
1 27432U 02024C   25332.65027750  .00000051  00000+0  49658-4 0  9994
2 27432  98.9022  21.4698 0049336 310.6873 162.0268 14.14523281214950
MIDORI II (ADEOS-II)    
1 27597U 02056A   25332.50357792  .00000315  00000+0  14175-3 0  9995
2 27597  98.7616 285.3869 0000591  15.2664 344.8535 14.29190586195843
H-2A R/B                
1 27601U 02056E   25332.67408159  .00000339  00000+0  13308-3 0  9996
2 27601  98.3048 291.9928 0071466 102.3723  69.6983 14.33658993199632
CZ-4B R/B               
1 28059U 03049C   25332.56578918  .00000430  00000+0  11027-3 0  9994
2 28059  98.6780 318.5953 0048200 178.9233 181.2075 14.54889172171894
CZ-2C R/B               
1 28222U 04012C   25332.64503385  .00035004  00000+0  53487-3 0  9993
2 28222  97.7451  24.1154 0017472 324.9891  35.0212 15.54163363188530
SL-16 R/B               
1 28353U 04021B   25332.62027386  .00000018  00000+0  33929-4 0  9995
2 28353  71.0018  84.5935 0005978 216.8736 143.1976 14.14582293108544
CZ-4B R/B               
1 28415U 04035C   25332.60529358  .00008368  00000+0  31334-3 0  9996
2 28415  97.3633   3.1402 0032622 329.7560  30.1795 15.27038206164471
CZ-2C R/B               
1 28480U 04046B   25332.51418397  .00000211  00000+0  93112-4 0  9992
2 28480  98.1976 248.7772 0140733  94.0350 267.6932 14.26930942 94075
ARIANE 5 R/B            
1 28499U 04049H   25332.50250327  .00001006  00000+0  11819-3 0  9997
2 28499  98.2518 132.2742 0083803 319.6821  39.8198 14.84962453130772
