CCSDS_OMM_VERS = 2.0
CREATION_DATE  = 
ORIGINATOR     = 

OBJECT_NAME    = ENVISAT
OBJECT_ID      = 2002-009A
CENTER_NAME    = EARTH
REF_FRAME      = TEME
TIME_SYSTEM    = UTC
MEAN_ELEMENT_THEORY = SGP/SGP4

EPOCH          = 2025-11-28T16:08:55.989600
MEAN_MOTION    = 14.38990998
ECCENTRICITY   = .00012428
INCLINATION    = 98.3580
RA_OF_ASC_NODE = 283.7717
ARG_OF_PERICENTER = 82.2784
MEAN_ANOMALY   = 91.0843

EPHEMERIS_TYPE = 0
CLASSIFICATION_TYPE = U
NORAD_CAT_ID   = 27386
ELEMENT_SET_NO = 999
REV_AT_EPOCH   = 24464
BSTAR          = .6408177E-4
MEAN_MOTION_DOT = .155E-5
MEAN_MOTION_DDOT = 0

CCSDS_OMM_VERS = 2.0
CREATION_DATE  = 
ORIGINATOR     = 

OBJECT_NAME    = IDEFIX & ARIANE 42P R/B
OBJECT_ID      = 2002-021B
CENTER_NAME    = EARTH
REF_FRAME      = TEME
TIME_SYSTEM    = UTC
MEAN_ELEMENT_THEORY = SGP/SGP4

EPOCH          = 2025-11-28T12:41:03.943104
MEAN_MOTION    = 14.30933885
ECCENTRICITY   = .00126967
INCLINATION    = 98.5767
RA_OF_ASC_NODE = 267.4054
ARG_OF_PERICENTER = 122.0238
MEAN_ANOMALY   = 238.2180

EPHEMERIS_TYPE = 0
CLASSIFICATION_TYPE = U
NORAD_CAT_ID   = 27422
ELEMENT_SET_NO = 999
REV_AT_EPOCH   = 22955
BSTAR          = .14398091E-3
MEAN_MOTION_DOT = .335E-5
MEAN_MOTION_DDOT = 0

CCSDS_OMM_VERS = 2.0
CREATION_DATE  = 
ORIGINATOR     = 

OBJECT_NAME    = AQUA
OBJECT_ID      = 2002-022A
CENTER_NAME    = EARTH
REF_FRAME      = TEME
TIME_SYSTEM    = UTC
MEAN_ELEMENT_THEORY = SGP/SGP4

EPOCH          = 2025-11-28T15:43:57.786816
MEAN_MOTION    = 14.61755963
ECCENTRICITY   = .00006327
INCLINATION    = 98.4018
RA_OF_ASC_NODE = 293.3077
ARG_OF_PERICENTER = 97.4457
MEAN_ANOMALY   = 315.0440

EPHEMERIS_TYPE = 0
CLASSIFICATION_TYPE = U
NORAD_CAT_ID   = 27424
ELEMENT_SET_NO = 999
REV_AT_EPOCH   = 25397
BSTAR          = .24650068E-3
MEAN_MOTION_DOT = .118E-4
MEAN_MOTION_DDOT = 0

CCSDS_OMM_VERS = 2.0
CREATION_DATE  = 
ORIGINATOR     = 

OBJECT_NAME    = CZ-4B R/B
OBJECT_ID      = 2002-024C
CENTER_NAME    = EARTH
REF_FRAME      = TEME
TIME_SYSTEM    = UTC
MEAN_ELEMENT_THEORY = SGP/SGP4

EPOCH          = 2025-11-28T15:36:23.976000
MEAN_MOTION    = 14.14523281
ECCENTRICITY   = .00493367
INCLINATION    = 98.9022
RA_OF_ASC_NODE = 21.4698
ARG_OF_PERICENTER = 310.6873
MEAN_ANOMALY   = 162.0268

EPHEMERIS_TYPE = 0
CLASSIFICATION_TYPE = U
NORAD_CAT_ID   = 27432
ELEMENT_SET_NO = 999
REV_AT_EPOCH   = 21495
BSTAR          = .49658441E-4
MEAN_MOTION_DOT = .51E-6
MEAN_MOTION_DDOT = 0

CCSDS_OMM_VERS = 2.0
CREATION_DATE  = 
ORIGINATOR     = 

OBJECT_NAME    = MIDORI II (ADEOS-II)
OBJECT_ID      = 2002-056A
CENTER_NAME    = EARTH
REF_FRAME      = TEME
TIME_SYSTEM    = UTC
MEAN_ELEMENT_THEORY = SGP/SGP4

EPOCH          = 2025-11-28T12:05:09.132288
MEAN_MOTION    = 14.29190586
ECCENTRICITY   = .0000591
INCLINATION    = 98.7616
RA_OF_ASC_NODE = 285.3869
ARG_OF_PERICENTER = 15.2664
MEAN_ANOMALY   = 344.8535

EPHEMERIS_TYPE = 0
CLASSIFICATION_TYPE = U
NORAD_CAT_ID   = 27597
ELEMENT_SET_NO = 999
REV_AT_EPOCH   = 19584
BSTAR          = .14174663E-3
MEAN_MOTION_DOT = .315E-5
MEAN_MOTION_DDOT = 0

CCSDS_OMM_VERS = 2.0
CREATION_DATE  = 
ORIGINATOR     = 

OBJECT_NAME    = H-2A R/B
OBJECT_ID      = 2002-056E
CENTER_NAME    = EARTH
REF_FRAME      = TEME
TIME_SYSTEM    = UTC
MEAN_ELEMENT_THEORY = SGP/SGP4

EPOCH          = 2025-11-28T16:10:40.649376
MEAN_MOTION    = 14.33658993
ECCENTRICITY   = .00714668
INCLINATION    = 98.3048
RA_OF_ASC_NODE = 291.9928
ARG_OF_PERICENTER = 102.3723
MEAN_ANOMALY   = 69.6983

EPHEMERIS_TYPE = 0
CLASSIFICATION_TYPE = U
NORAD_CAT_ID   = 27601
ELEMENT_SET_NO = 999
REV_AT_EPOCH   = 19963
BSTAR          = .13307716E-3
MEAN_MOTION_DOT = .339E-5
MEAN_MOTION_DDOT = 0

CCSDS_OMM_VERS = 2.0
CREATION_DATE  = 
ORIGINATOR     = 

OBJECT_NAME    = CZ-4B R/B
OBJECT_ID      = 2003-049C
CENTER_NAME    = EARTH
REF_FRAME      = TEME
TIME_SYSTEM    = UTC
MEAN_ELEMENT_THEORY = SGP/SGP4

EPOCH          = 2025-11-28T13:34:44.185152
MEAN_MOTION    = 14.54889172
ECCENTRICITY   = .00482005
INCLINATION    = 98.6780
RA_OF_ASC_NODE = 318.5953
ARG_OF_PERICENTER = 178.9233
MEAN_ANOMALY   = 181.2075

EPHEMERIS_TYPE = 0
CLASSIFICATION_TYPE = U
NORAD_CAT_ID   = 28059
ELEMENT_SET_NO = 999
REV_AT_EPOCH   = 17189
BSTAR          = .11026535E-3
MEAN_MOTION_DOT = .43E-5
MEAN_MOTION_DDOT = 0

CCSDS_OMM_VERS = 2.0
CREATION_DATE  = 
ORIGINATOR     = 

OBJECT_NAME    = CZ-2C R/B
OBJECT_ID      = 2004-012C
CENTER_NAME    = EARTH
REF_FRAME      = TEME
TIME_SYSTEM    = UTC
MEAN_ELEMENT_THEORY = SGP/SGP4

EPOCH          = 2025-11-28T15:28:50.924640
MEAN_MOTION    = 15.54163363
ECCENTRICITY   = .00174728
INCLINATION    = 97.7451
RA_OF_ASC_NODE = 24.1154
ARG_OF_PERICENTER = 324.9891
MEAN_ANOMALY   = 35.0212

EPHEMERIS_TYPE = 0
CLASSIFICATION_TYPE = U
NORAD_CAT_ID   = 28222
ELEMENT_SET_NO = 999
REV_AT_EPOCH   = 18853
BSTAR          = .53486553E-3
MEAN_MOTION_DOT = .35004E-3
MEAN_MOTION_DDOT = 0

CCSDS_OMM_VERS = 2.0
CREATION_DATE  = 
ORIGINATOR     = 

OBJECT_NAME    = SL-16 R/B
OBJECT_ID      = 2004-021B
CENTER_NAME    = EARTH
REF_FRAME      = TEME
TIME_SYSTEM    = UTC
MEAN_ELEMENT_THEORY = SGP/SGP4

EPOCH          = 2025-11-28T14:53:11.661504
MEAN_MOTION    = 14.14582293
ECCENTRICITY   = .00059789
INCLINATION    = 71.0018
RA_OF_ASC_NODE = 84.5935
ARG_OF_PERICENTER = 216.8736
MEAN_ANOMALY   = 143.1976

EPHEMERIS_TYPE = 0
CLASSIFICATION_TYPE = U
NORAD_CAT_ID   = 28353
ELEMENT_SET_NO = 999
REV_AT_EPOCH   = 10854
BSTAR          = .33929471E-4
MEAN_MOTION_DOT = .18E-6
MEAN_MOTION_DDOT = 0

CCSDS_OMM_VERS = 2.0
CREATION_DATE  = 
ORIGINATOR     = 

OBJECT_NAME    = CZ-4B R/B
OBJECT_ID      = 2004-035C
CENTER_NAME    = EARTH
REF_FRAME      = TEME
TIME_SYSTEM    = UTC
MEAN_ELEMENT_THEORY = SGP/SGP4

EPOCH          = 2025-11-28T14:31:37.365312
MEAN_MOTION    = 15.27038206
ECCENTRICITY   = .00326222
INCLINATION    = 97.3633
RA_OF_ASC_NODE = 3.1402
ARG_OF_PERICENTER = 329.7560
MEAN_ANOMALY   = 30.1795

EPHEMERIS_TYPE = 0
CLASSIFICATION_TYPE = U
NORAD_CAT_ID   = 28415
ELEMENT_SET_NO = 999
REV_AT_EPOCH   = 16447
BSTAR          = .31333797E-3
MEAN_MOTION_DOT = .8368E-4
MEAN_MOTION_DDOT = 0

CCSDS_OMM_VERS = 2.0
CREATION_DATE  = 
ORIGINATOR     = 

OBJECT_NAME    = CZ-2C R/B
OBJECT_ID      = 2004-046B
CENTER_NAME    = EARTH
REF_FRAME      = TEME
TIME_SYSTEM    = UTC
MEAN_ELEMENT_THEORY = SGP/SGP4

EPOCH          = 2025-11-28T12:20:25.495008
MEAN_MOTION    = 14.26930942
ECCENTRICITY   = .01407335
INCLINATION    = 98.1976
RA_OF_ASC_NODE = 248.7772
ARG_OF_PERICENTER = 94.0350
MEAN_ANOMALY   = 267.6932

EPHEMERIS_TYPE = 0
CLASSIFICATION_TYPE = U
NORAD_CAT_ID   = 28480
ELEMENT_SET_NO = 999
REV_AT_EPOCH   = 9407
BSTAR          = .93112075E-4
MEAN_MOTION_DOT = .211E-5
MEAN_MOTION_DDOT = 0

CCSDS_OMM_VERS = 2.0
CREATION_DATE  = 
ORIGINATOR     = 

OBJECT_NAME    = ARIANE 5 R/B
OBJECT_ID      = 2004-049H
CENTER_NAME    = EARTH
REF_FRAME      = TEME
TIME_SYSTEM    = UTC
MEAN_ELEMENT_THEORY = SGP/SGP4

EPOCH          = 2025-11-28T12:03:36.282528
MEAN_MOTION    = 14.84962453
ECCENTRICITY   = .00838038
INCLINATION    = 98.2518
RA_OF_ASC_NODE = 132.2742
ARG_OF_PERICENTER = 319.6821
MEAN_ANOMALY   = 39.8198

EPHEMERIS_TYPE = 0
CLASSIFICATION_TYPE = U
NORAD_CAT_ID   = 28499
ELEMENT_SET_NO = 999
REV_AT_EPOCH   = 13077
BSTAR          = .11818811E-3
MEAN_MOTION_DOT = .1006E-4
MEAN_MOTION_DDOT = 0

